{
  "routes": {
    "Airport -> Rawai": {
      "line": "Phuket Airport to Rawai",
      "buffer": "Rawai",
      "direction": "Bus to Rawai",
      "files": {
        "geojson": "data_routes/airport_rawai_ordered.geojson",
        "schedule": "data_schedules/airport_rawai_bus_schedule.csv",
        "speeds": "data_speeds/airport_rawai_speeds.csv"
      },
      "stops": {
        "42": {
          "no": 42,
          "index": 3,
          "lat": 8.10846,
          "lon": 98.30655,
          "name_eng": "Phuket Airport",
          "name_th": "สนามบิน ภูเก็ต"
        },
        "43": {
          "no": 43,
          "index": 2368,
          "lat": 8.034014,
          "lon": 98.333571,
          "name_eng": "Thalang Public Health Office",
          "name_th": "สำนักงานสาธารณสุข ถลาง"
        },
        "44": {
          "no": 44,
          "index": 2586,
          "lat": 8.02658289569,
          "lon": 98.3301288357,
          "name_eng": "Baan Khian",
          "name_th": "บ้านเคียน"
        },
        "45": {
          "no": 45,
          "index": 3541,
          "lat": 7.9945496178,
          "lon": 98.3074652629,
          "name_eng": "Cherngtalay School",
          "name_th": "เชิงทะเลวิทยคม"
        },
        "46": {
          "no": 46,
          "index": 3576,
          "lat": 8.00054,
          "lon": 98.2967,
          "name_eng": "Laguna",
          "name_th": "ลากูน่า"
        },
        "47": {
          "no": 47,
          "index": 3837,
          "lat": 7.98683280743,
          "lon": 98.3022240495,
          "name_eng": "Lotus Cherngtalay",
          "name_th": "โลตัสเชิงทะเล"
        },
        "48": {
          "no": 48,
          "index": 4456,
          "lat": 7.97503615503,
          "lon": 98.2807999359,
          "name_eng": "Surin Beach",
          "name_th": "หาดสุรินทร์"
        },
        "49": {
          "no": 49,
          "index": 4912,
          "lat": 7.96236129603,
          "lon": 98.2848117638,
          "name_eng": "Intercontinental Kamala",
          "name_th": "อินเตอร์คอนติเนนตัล ภูเก็ต"
        },
        "50": {
          "no": 50,
          "index": 5026,
          "lat": 7.95731092253,
          "lon": 98.2844041477,
          "name_eng": "Kamala Muslim Cemetery",
          "name_th": "กุโบร์ กมลา"
        },
        "51": {
          "no": 51,
          "index": 5136,
          "lat": 7.95415185187,
          "lon": 98.2867818744,
          "name_eng": "Phuket Fantasea",
          "name_th": "ภูเก็ต แฟนตาซี"
        },
        "52": {
          "no": 52,
          "index": 5396,
          "lat": 7.94656358353,
          "lon": 98.279718199,
          "name_eng": "Big C Kamala",
          "name_th": "บิ๊กซี กมลา"
        },
        "53": {
          "no": 53,
          "index": 6450,
          "lat": 7.91503587898,
          "lon": 98.2928011963,
          "name_eng": "Kalim Bus Stop",
          "name_th": "หาดกะหลิม"
        },
        "54": {
          "no": 54,
          "index": 6540,
          "lat": 7.9115973687,
          "lon": 98.2948875228,
          "name_eng": "Kalim School",
          "name_th": "โรงเรียนกะหลิม"
        },
        "55": {
          "no": 55,
          "index": 6630,
          "lat": 7.90826338087,
          "lon": 98.2970014274,
          "name_eng": "Diamond Cliff Resort & Spa",
          "name_th": "ไดมอนด์คลิฟ รีสอร์ท แอนด์ สปา"
        },
        "56": {
          "no": 56,
          "index": 6893,
          "lat": 7.89925553359,
          "lon": 98.3001148938,
          "name_eng": "Indigo Patong",
          "name_th": "อินดิโก้ โฮเต็ล"
        },
        "57": {
          "no": 57,
          "index": 7083,
          "lat": 7.89107747505,
          "lon": 98.2976975965,
          "name_eng": "Patong PEA",
          "name_th": "การไฟฟ้าป่าตอง"
        },
        "58": {
          "no": 58,
          "index": 7169,
          "lat": 7.88830021599,
          "lon": 98.2954830884,
          "name_eng": "Holiday Inn Resort Patong",
          "name_th": "ฮอลิเดย์ อินน์ ป่าอง"
        },
        "59": {
          "no": 59,
          "index": 7899,
          "lat": 7.86086561883,
          "lon": 98.2849353543,
          "name_eng": "Secret cliff resort ",
          "name_th": "ซีเคร็ท คลิฟ"
        },
        "60": {
          "no": 60,
          "index": 8431,
          "lat": 7.84795664331,
          "lon": 98.2934142411,
          "name_eng": "Karon Circle",
          "name_th": "วงเวียนกะรน"
        },
        "61": {
          "no": 61,
          "index": 8523,
          "lat": 7.84389885144,
          "lon": 98.294253846,
          "name_eng": "Woraburi Karon",
          "name_th": "วรบุรี ภูเก็ต รีสอร์ท"
        },
        "62": {
          "no": 62,
          "index": 8823,
          "lat": 7.83042868249,
          "lon": 98.2951891642,
          "name_eng": "Karon Stadium",
          "name_th": "สนามกีฬากะรน"
        },
        "63": {
          "no": 63,
          "index": 8979,
          "lat": 7.82412170874,
          "lon": 98.2977529792,
          "name_eng": "OZO Phuket",
          "name_th": "โอโซ่ ภูเก็ต"
        },
        "64": {
          "no": 64,
          "index": 9111,
          "lat": 7.81869818864,
          "lon": 98.300246714,
          "name_eng": "Kata Palm",
          "name_th": "กะตะ ปาล์ม"
        },
        "65": {
          "no": 65,
          "index": 9157,
          "lat": 7.81668122979,
          "lon": 98.3007351739,
          "name_eng": "Beyond hotel Kata",
          "name_th": "บียอนด์ กะตะ"
        },
        "66": {
          "no": 66,
          "index": 9327,
          "lat": 7.81260613785,
          "lon": 98.3011662339,
          "name_eng": "Andaman Cannacia Resort",
          "name_th": "อันดามัน คาเนเซีย"
        },
        "67": {
          "no": 67,
          "index": 10247,
          "lat": 7.79443123471,
          "lon": 98.3156676956,
          "name_eng": "Sai Yuan",
          "name_th": "ไสยวน"
        }
      }
    },
    "Rawai -> Airport": {
      "line": "Rawai to Phuket Airport",
      "buffer": "Phuket Airport",
      "direction": "Bus to Airport",
      "files": {
        "geojson": "data_routes/rawai_airport_ordered.geojson",
        "schedule": "data_schedules/rawai_airport_bus_schedule.csv",
        "speeds": "data_speeds/rawai_airport_speeds.csv"
      },
      "stops": {
        "16": {
          "no": 16,
          "index": 4,
          "lat": 7.77208774295,
          "lon": 98.3217882953,
          "name_eng": "Rawai Beach",
          "name_th": "หาดราไวย์"
        },
        "17": {
          "no": 17,
          "index": 642,
          "lat": 7.79441794757,
          "lon": 98.3155604072,
          "name_eng": "Sai Yuan",
          "name_th": "ไสยวน"
        },
        "18": {
          "no": 18,
          "index": 1565,
          "lat": 7.81247074512,
          "lon": 98.3010678512,
          "name_eng": "Andaman Cannacia Resort",
          "name_th": "อันดามัน คาเนเซีย"
        },
        "19": {
          "no": 19,
          "index": 1728,
          "lat": 7.81648548634,
          "lon": 98.3006487149,
          "name_eng": "Beyond hotel Kata",
          "name_th": "บียอนด์ กะตะ"
        },
        "20": {
          "no": 20,
          "index": 1780,
          "lat": 7.81874394528,
          "lon": 98.3000995192,
          "name_eng": "Kata Palm",
          "name_th": "กะตะ ปาล์ม"
        },
        "21": {
          "no": 21,
          "index": 1937,
          "lat": 7.82509655568,
          "lon": 98.2970288793,
          "name_eng": "OZO Kata",
          "name_th": "โอโซ่ ภูเก็ต"
        },
        "22": {
          "no": 22,
          "index": 1963,
          "lat": 7.82622531978,
          "lon": 98.2966885186,
          "name_eng": "Peach Blossom",
          "name_th": "พีช บลอสซั่ม"
        },
        "23": {
          "no": 23,
          "index": 2064,
          "lat": 7.83035424986,
          "lon": 98.2950633387,
          "name_eng": "Karon Stadium",
          "name_th": "สนามกีฬากะรน"
        },
        "24": {
          "no": 24,
          "index": 2369,
          "lat": 7.84400759933,
          "lon": 98.2941565461,
          "name_eng": "Woraburi Karon",
          "name_th": "วรบุรี ภูเก็ต รีสอร์ท"
        },
        "25": {
          "no": 25,
          "index": 2454,
          "lat": 7.84775915937,
          "lon": 98.2933055042,
          "name_eng": "Karon Circle",
          "name_th": "วงเวียนกะรน"
        },
        "26": {
          "no": 26,
          "index": 2997,
          "lat": 7.8609001407,
          "lon": 98.2845652549,
          "name_eng": "Secret cliff resort ",
          "name_th": "ซีเคร็ท คลิฟ"
        },
        "27": {
          "no": 27,
          "index": 3674,
          "lat": 7.88752462813,
          "lon": 98.2913288644,
          "name_eng": "Patong Bus Stop",
          "name_th": "จุดจอดรถป่าตอง"
        },
        "28": {
          "no": 28,
          "index": 3858,
          "lat": 7.89407,
          "lon": 98.29513,
          "name_eng": "Bangla Patong ",
          "name_th": "ป่าตอง บางลา"
        },
        "29": {
          "no": 29,
          "index": 4204,
          "lat": 7.90467913947,
          "lon": 98.2972091153,
          "name_eng": "Four Point Patong",
          "name_th": "โฟร์ พอยต์ ป่าตอง"
        },
        "30": {
          "no": 30,
          "index": 4320,
          "lat": 7.91067572034,
          "lon": 98.2957506346,
          "name_eng": "Kalim School",
          "name_th": "โรงเรียนกะหลิม"
        },
        "31": {
          "no": 31,
          "index": 4437,
          "lat": 7.9149017669,
          "lon": 98.2927425399,
          "name_eng": "Kalim Bus Stop",
          "name_th": "หาดกะหลิม"
        },
        "32": {
          "no": 32,
          "index": 5519,
          "lat": 7.94747711246,
          "lon": 98.2805120802,
          "name_eng": "Big C Kamala",
          "name_th": "บิ๊กซี กมลา"
        },
        "33": {
          "no": 33,
          "index": 5751,
          "lat": 7.95413235293,
          "lon": 98.2865626774,
          "name_eng": "Phuket Fantasea",
          "name_th": "ภูเก็ต แฟนตาซี"
        },
        "34": {
          "no": 34,
          "index": 5863,
          "lat": 7.95732021988,
          "lon": 98.2842693667,
          "name_eng": "Kamala Muslim Cemetery",
          "name_th": "กุโบร์ กมลา"
        },
        "35": {
          "no": 35,
          "index": 5945,
          "lat": 7.9609119227,
          "lon": 98.2846268463,
          "name_eng": "Cafe De Mar",
          "name_th": "คาเฟ่ เดล มาร์"
        },
        "36": {
          "no": 36,
          "index": 6442,
          "lat": 7.97543085798,
          "lon": 98.2806006571,
          "name_eng": "Surin Beach",
          "name_th": "หาดสุรินทร์"
        },
        "37": {
          "no": 37,
          "index": 7024,
          "lat": 7.98564677947,
          "lon": 98.3019957451,
          "name_eng": "Lotus Cherngtalay",
          "name_th": "โลตัสเชิงทะเล"
        },
        "38": {
          "no": 38,
          "index": 7313,
          "lat": 8.00036,
          "lon": 98.29662,
          "name_eng": "Laguna",
          "name_th": "ลากูน่า"
        },
        "39": {
          "no": 39,
          "index": 7346,
          "lat": 7.99461605031,
          "lon": 98.3072837597,
          "name_eng": "Cherngtalay School",
          "name_th": "เชิงทะเลวิทยคม"
        },
        "40": {
          "no": 40,
          "index": 8300,
          "lat": 8.02671784214,
          "lon": 98.3299507153,
          "name_eng": "Baan Khian",
          "name_th": "บ้านเคียน"
        },
        "41": {
          "no": 41,
          "index": 8532,
          "lat": 8.03455487516,
          "lon": 98.3332974713,
          "name_eng": "Thalang Public Health Office",
          "name_th": "สำนักงานสาธารณสุข ถลาง"
        }
      }
    },
    "Bus 2 -> Bus 1 -> Patong": {
      "line": "Phuket Bus Terminal 1 to Patong",
      "buffer": "Patong",
      "direction": "Bus to Terminal 1",
      "files": {
        "geojson": "data_routes/bus2_bus1_patong_ordered.geojson",
        "schedule": "data_schedules/bus2_bus1_patong_schedule.csv",
        "speeds": "data_speeds/bus2_bus1_patong_speeds.csv"
      },
      "stops": {
        "107": {
          "no": 107,
          "index": 2,
          "lat": 7.9178462,
          "lon": 98.3946883,
          "name_eng": "Phuket Bus Terminal 2",
          "name_th": "สถานีขนส่งภูเก็ต 2"
        },
        "108": {
          "no": 108,
          "index": 205,
          "lat": 7.909134,
          "lon": 98.391782,
          "name_eng": "Big C Market Thepkrasattri",
          "name_th": "บิ๊กซี มาร์เก็ต เทพกระษัตรี"
        },
        "109": {
          "no": 109,
          "index": 427,
          "lat": 7.908610653,
          "lon": 98.39966677,
          "name_eng": "Ban Kuku School",
          "name_th": "โรงเรียนบ้านกู้กู"
        },
        "110": {
          "no": 110,
          "index": 522,
          "lat": 7.907166011,
          "lon": 98.40369154,
          "name_eng": "Dcondo Campus Kuku",
          "name_th": "ดีคอนโด กู้กู"
        },
        "111": {
          "no": 111,
          "index": 680,
          "lat": 7.90367797623822,
          "lon": 98.4098317778341,
          "name_eng": "Soi Thachin",
          "name_th": "ป้ายซอยท่าจีน"
        },
        "112": {
          "no": 112,
          "index": 789,
          "lat": 7.898938,
          "lon": 98.410774,
          "name_eng": "Big C Mini Kingkaew",
          "name_th": "บิ๊กซีมินิ กิ่งแก้ว"
        },
        "113": {
          "no": 113,
          "index": 939,
          "lat": 7.895382,
          "lon": 98.406191,
          "name_eng": "Baan Natkamon",
          "name_th": "บ้านณัฐกมล"
        },
        "114": {
          "no": 114,
          "index": 1116,
          "lat": 7.893408,
          "lon": 98.401439,
          "name_eng": "Phuket Provincial Cooperative Office",
          "name_th": "สำนักงานสหกรณ์จังหวัด"
        },
        "115": {
          "no": 115,
          "index": 1246,
          "lat": 7.889820314,
          "lon": 98.39786569,
          "name_eng": "Sanamchai (To Bus 1)",
          "name_th": "สนามชัย"
        },
        "68": {
          "no": 68,
          "index": 1587,
          "lat": 7.884101493,
          "lon": 98.39575082,
          "name_eng": "Phuket Bus Terminal 1",
          "name_th": "สถานีขนส่งภูเก็ต 1"
        },
        "69": {
          "no": 69,
          "index": 1886,
          "lat": 7.889961988,
          "lon": 98.39767359,
          "name_eng": "Sanamchai (To Patong)",
          "name_th": "สนามชัย"
        },
        "70": {
          "no": 70,
          "index": 2019,
          "lat": 7.890961837,
          "lon": 98.39209012,
          "name_eng": "Satree Phuket School",
          "name_th": "โรงเรียนสตรีภูเก็ต"
        },
        "71": {
          "no": 71,
          "index": 2111,
          "lat": 7.892383991,
          "lon": 98.38963431,
          "name_eng": "Phuket Wittayalai School",
          "name_th": "โรงเรียนภูเก็ตวิทยาลัย"
        },
        "72": {
          "no": 72,
          "index": 2334,
          "lat": 7.897257446,
          "lon": 98.38400696,
          "name_eng": "Vachira Phuket Hospital",
          "name_th": "โรงพยาบาลวชิระภูเก็ต"
        },
        "73": {
          "no": 73,
          "index": 2559,
          "lat": 7.904270508,
          "lon": 98.3776116,
          "name_eng": "Bangkok Hospital Phuket",
          "name_th": "โรงพยาบาลกรุงเทพภูเก็ต"
        },
        "74": {
          "no": 74,
          "index": 2715,
          "lat": 7.906829856,
          "lon": 98.37335804,
          "name_eng": "Chillva Market",
          "name_th": "ตลาดชิลวา"
        },
        "75": {
          "no": 75,
          "index": 2809,
          "lat": 7.905991202,
          "lon": 98.36921261,
          "name_eng": "Lotus Samkong",
          "name_th": "โลตัส สามกอง"
        },
        "76": {
          "no": 76,
          "index": 2935,
          "lat": 7.904688653,
          "lon": 98.36366775,
          "name_eng": "Andamanda Phuket Waterpark",
          "name_th": "สวนน้ำอันดามันดา"
        },
        "77": {
          "no": 77,
          "index": 3266,
          "lat": 7.908207595,
          "lon": 98.34954164,
          "name_eng": "Kathu Fresh Market",
          "name_th": "ตลาดสดกะทู้"
        },
        "78": {
          "no": 78,
          "index": 3459,
          "lat": 7.911864114,
          "lon": 98.34250205,
          "name_eng": "PTT Station Kathu",
          "name_th": "ปตท. กะทู้"
        },
        "79": {
          "no": 79,
          "index": 3649,
          "lat": 7.911319948,
          "lon": 98.3362023,
          "name_eng": "Siko",
          "name_th": "สี่กอ"
        },
        "80": {
          "no": 80,
          "index": 3736,
          "lat": 7.90995831,
          "lon": 98.3327828,
          "name_eng": "Kathu Police Station",
          "name_th": "สถานีตำรวจภูธรกะทู้"
        },
        "81": {
          "no": 81,
          "index": 4922,
          "lat": 7.883948691,
          "lon": 98.30179899,
          "name_eng": "Coffee Mania",
          "name_th": "คอฟฟี่ มาเนีย"
        },
        "82": {
          "no": 82,
          "index": 5178,
          "lat": 7.882674707,
          "lon": 98.2933205,
          "name_eng": "Malin Plaza",
          "name_th": "มาลินพลาซ่า"
        }
      },
      "overlap" : {
        "Surin Road": {
            "index_ranges": {"south": [1223, 1412], "north": [1717, 1895]},
            "azm_range": [75, 225]
        },
        "Phangnga Road": {
            "index_ranges": {"west": [1412, 1500], "east": [1630, 1717]},
            "azm_range": [5, 185]
        }
      }
    },
    "Patong -> Bus 1 -> Bus 2": {
      "line": "Patong to Phuket Bus Terminal 1",
      "buffer": "Patong",
      "direction": "Bus to Patong",
      "files": {
        "geojson": "data_routes/patong_bus1_bus2_ordered.geojson",
        "schedule": "data_schedules/patong_bus1_bus2_schedule.csv",
        "speeds": "data_speeds/patong_bus1_bus2_speeds.csv"
      },
      "stops": {
        "83": {
          "no": 83,
          "index": 0,
          "lat": 7.88742,
          "lon": 98.291173,
          "name_eng": "Patong",
          "name_th": "ป่าตอง"
        },
        "84": {
          "no": 84,
          "index": 115,
          "lat": 7.882809803,
          "lon": 98.29345369,
          "name_eng": "Malin Plaza",
          "name_th": "มาลินพลาซ่า"
        },
        "85": {
          "no": 85,
          "index": 371,
          "lat": 7.884033046,
          "lon": 98.3017782,
          "name_eng": "Makro Nanai",
          "name_th": "แม็คโคร นาใน"
        },
        "86": {
          "no": 86,
          "index": 1550,
          "lat": 7.909912418,
          "lon": 98.3323804,
          "name_eng": "Kathu Police Station",
          "name_th": "สถานีตำรวจภูธรกะทู้"
        },
        "87": {
          "no": 87,
          "index": 1652,
          "lat": 7.911686805,
          "lon": 98.33621525,
          "name_eng": "Siko",
          "name_th": "สี่กอ"
        },
        "88": {
          "no": 88,
          "index": 1843,
          "lat": 7.911828211,
          "lon": 98.34279008,
          "name_eng": "PTT Station Kathu",
          "name_th": "ปตท. กะทู้"
        },
        "89": {
          "no": 89,
          "index": 2031,
          "lat": 7.908360146,
          "lon": 98.34964231,
          "name_eng": "Kathu Fresh Market",
          "name_th": "ตลาดสดกะทู้"
        },
        "90": {
          "no": 90,
          "index": 2377,
          "lat": 7.905041515,
          "lon": 98.36436545,
          "name_eng": "Andamanda Phuket Waterpark",
          "name_th": "สวนน้ำอันดามันดา"
        },
        "91": {
          "no": 91,
          "index": 2484,
          "lat": 7.906262429,
          "lon": 98.36908411,
          "name_eng": "Lotus Samkong",
          "name_th": "โลตัส สามกอง"
        },
        "92": {
          "no": 92,
          "index": 2580,
          "lat": 7.907018353,
          "lon": 98.37334465,
          "name_eng": "Chillva Market",
          "name_th": "ตลาดชิลวา"
        },
        "93": {
          "no": 93,
          "index": 2727,
          "lat": 7.904781267,
          "lon": 98.37777846,
          "name_eng": "Bangkok Hospital Phuket",
          "name_th": "โรงพยาบาลกรุงเทพภูเก็ต"
        },
        "94": {
          "no": 94,
          "index": 2966,
          "lat": 7.897191545,
          "lon": 98.38418576,
          "name_eng": "Vachira Phuket Hospital",
          "name_th": "โรงพยาบาลวชิระภูเก็ต"
        },
        "95": {
          "no": 95,
          "index": 3184,
          "lat": 7.892510646,
          "lon": 98.38976981,
          "name_eng": "Phuket Wittayalai School",
          "name_th": "โรงเรียนภูเก็ตวิทยาลัย"
        },
        "96": {
          "no": 96,
          "index": 3270,
          "lat": 7.891111846,
          "lon": 98.39197764,
          "name_eng": "Satree Phuket School",
          "name_th": "โรงเรียนสตรีภูเก็ต"
        },
        "97": {
          "no": 97,
          "index": 3411,
          "lat": 7.889820314,
          "lon": 98.39786569,
          "name_eng": "Sanamchai (To Bus 1)",
          "name_th": "สนามชัย"
        },
        "98": {
          "no": 98,
          "index": 3774,
          "lat": 7.884101493,
          "lon": 98.39575082,
          "name_eng": "Phuket Bus Terminal 1",
          "name_th": "สถานีขนส่งภูเก็ต 1"
        },
        "99": {
          "no": 99,
          "index": 4052,
          "lat": 7.8899833829,
          "lon": 98.3977533924,
          "name_eng": "Sanamchai (To Bus 2)",
          "name_th": "สนามชัย"
        },
        "100": {
          "no": 100,
          "index": 4180,
          "lat": 7.893502,
          "lon": 98.401354,
          "name_eng": "Phuket Provincial Cooperative Office",
          "name_th": "สำนักงานสหกรณ์จังหวัด"
        },
        "101": {
          "no": 101,
          "index": 4358,
          "lat": 7.895461,
          "lon": 98.406222,
          "name_eng": "Baan Natkamon",
          "name_th": "บ้านณัฐกมล"
        },
        "102": {
          "no": 102,
          "index": 4507,
          "lat": 7.898979,
          "lon": 98.410692,
          "name_eng": "Big C Mini Kingkaew",
          "name_th": "บิ๊กซีมินิ กิ่งแก้ว"
        },
        "103": {
          "no": 103,
          "index": 4616,
          "lat": 7.90366068891297,
          "lon": 98.40972719,
          "name_eng": "Soi Thachin",
          "name_th": "ป้ายซอยท่าจีน"
        },
        "104": {
          "no": 104,
          "index": 4776,
          "lat": 7.907137216,
          "lon": 98.40352997,
          "name_eng": "Dcondo Campus Kuku",
          "name_th": "ดีคอนโด กู้กู"
        },
        "105": {
          "no": 105,
          "index": 4859,
          "lat": 7.908361,
          "lon": 98.399987,
          "name_eng": "Ban Kuku School",
          "name_th": "โรงเรียนบ้านกู้กู"
        },
        "106": {
          "no": 106,
          "index": 5122,
          "lat": 7.910465,
          "lon": 98.392036,
          "name_eng": "Big C Market Thepkrasattri",
          "name_th": "บิ๊กซี มาร์เก็ต เทพกระษัตรี"
        }
      },
      "overlap": {
        "Surin Road": {
            "index_ranges": {"south": [3397, 3577], "north": [3883, 4063]},
            "azm_range": [75, 225]
        },
        "Phangnga Road": {
            "index_ranges": {"east": [3795, 3883], "west": [3577, 3666]},
            "azm_range": [5, 185]
        }
      }
    },
    "Dragon Line": {
      "line": "Dragon Line",
      "buffer": "Dragon Line",
      "direction": "Old Town Bus",
      "files": {
        "geojson": "data_routes/dragonline_ordered.geojson",
        "schedule": "data_schedules/dragonline_schedule.csv",
        "speeds": "data_speeds/dragon_new_speeds.csv"
      },
      "stops": {
        "1": {
          "no": 1,
          "index": 0,
          "lat": 7.885774,
          "lon": 98.39478,
          "name_eng": "PKCD Parking",
          "name_th": "ลานจอดรถ"
        },
        "2": {
          "no": 2,
          "index": 56,
          "lat": 7.886069,
          "lon": 98.39229,
          "name_eng": "Queen Sirikit Park",
          "name_th": "สวนสิริกิติ์"
        },
        "3": {
          "no": 3,
          "index": 134,
          "lat": 7.884223,
          "lon": 98.39086,
          "name_eng": "Old Town Intersection",
          "name_th": "แยกเมืองเก่า"
        },
        "4": {
          "no": 4,
          "index": 159,
          "lat": 7.883601,
          "lon": 98.39134,
          "name_eng": "Government Savings Bank",
          "name_th": "ธนาคารออมสิน"
        },
        "5": {
          "no": 5,
          "index": 243,
          "lat": 7.883132,
          "lon": 98.39484,
          "name_eng": "Royal Phuket City Hotel",
          "name_th": "โรงแรม รอยัล ภูเก็ต ซิตี้"
        },
        "6": {
          "no": 6,
          "index": 333,
          "lat": 7.881669,
          "lon": 98.39254,
          "name_eng": "Pearl Hotel Phuket",
          "name_th": "โรงแรมเพิร์ล ภูเก็ต"
        },
        "7": {
          "no": 7,
          "index": 435,
          "lat": 7.87751,
          "lon": 98.39424,
          "name_eng": "Mc Donald's",
          "name_th": "แม็คโดนัล"
        },
        "8": {
          "no": 8,
          "index": 523,
          "lat": 7.879489,
          "lon": 98.39246,
          "name_eng": "Surin Circle Clock Tower",
          "name_th": "วงเวียนสุรินทร์"
        },
        "9": {
          "no": 9,
          "index": 593,
          "lat": 7.882266,
          "lon": 98.39106,
          "name_eng": "Municipal Parking",
          "name_th": "จุดจอดรถเทศบาล"
        },
        "10": {
          "no": 10,
          "index": 647,
          "lat": 7.883057,
          "lon": 98.38906,
          "name_eng": "Krungsri Bank",
          "name_th": "ธนาคารกรุุงศรี"
        },
        "11": {
          "no": 11,
          "index": 692,
          "lat": 7.883587,
          "lon": 98.38729,
          "name_eng": "WANLAMUN & EGG E EGG @ OLD TOWN",
          "name_th": "ร้านหวานละมุน&ร้านเอ้ก อี เอ้ก สาขาเมืองเก่า"
        },
        "12": {
          "no": 12,
          "index": 760,
          "lat": 7.885098,
          "lon": 98.38571,
          "name_eng": "Phuket Thaihua Museum",
          "name_th": "พิพิธภัณฑ์ไทยหัว"
        },
        "13": {
          "no": 13,
          "index": 830,
          "lat": 7.886441,
          "lon": 98.38668,
          "name_eng": "Dibuk Road",
          "name_th": "ถนนดีบุก"
        },
        "14": {
          "no": 14,
          "index": 886,
          "lat": 7.886017,
          "lon": 98.38915,
          "name_eng": "Mongkhonnimit Temple",
          "name_th": "วัดมงคลนิมิตร"
        },
        "15": {
          "no": 15,
          "index": 960,
          "lat": 7.886116,
          "lon": 98.39247,
          "name_eng": "Limelight Phuket",
          "name_th": "ไลม์ไลท์ ภูเก็ต"
        }
      },
      "overlap": {
        "Dibuk Road": {
            "index_ranges": {"west": [917, 1011], "east": [1, 95]},
            "azm_range": [0, 180]
        },
        "Phangnga Road": {
            "index_ranges": {"east": [264, 293], "west": [1412, 1500]},
            "azm_range": [5, 185]
        }
      }
    }
  }
}